STARLINK-30400          
1 57937U 23148C   26068.17015527  .00000231  00000+0  19912-4 0  9990
2 57937  53.1615  26.6044 0001096  73.1298 286.9823 15.30192178138346
YAOGAN-43 01D           
1 60461U 24148D   26068.43560480  .00010676  00000+0  37766-3 0  9999
2 60461  35.0010  61.7102 0002556 326.2473  33.8080 15.28369377 87008
